OBJECT_NAME,OBJECT_ID,EPOCH,MEAN_MOTION,ECCENTRICITY,INCLINATION,RA_OF_ASC_NODE,ARG_OF_PERICENTER,MEAN_ANOMALY,EPHEMERIS_TYPE,CLASSIFICATION_TYPE,NORAD_CAT_ID,ELEMENT_SET_NO,REV_AT_EPOCH,BSTAR,MEAN_MOTION_DOT,MEAN_MOTION_DDOT
LINGQIAO VIDEO A,2015-057B,2026-06-15T04:39:45.005760,14.77389401,.0015214,97.6612,161.0941,277.6484,82.3000,0,U,40959,999,57511,.42528E-4,.254E-5,0
LINGQIAO VIDEO B,2015-057C,2026-06-15T05:43:53.112288,14.77498775,.0015326,97.6578,162.3007,277.4500,82.4970,0,U,40960,999,57516,.13567E-3,.92E-5,0
JILIN-1,2015-057D,2026-06-15T04:27:09.781632,14.78157397,.0015311,97.6507,165.6516,270.1718,89.7739,0,U,40961,999,57531,.104E-3,.706E-5,0
FOX-1A (AO-85),2015-058D,2026-06-15T01:43:42.235104,14.90961275,.0130328,64.7762,285.5569,57.4109,303.9507,0,U,40967,999,11325,.20683E-3,.223E-4,0
SINOD-D 1,2015-058E,2026-06-14T14:30:47.774304,14.95891927,.01188804,64.7761,266.9995,54.1051,307.1029,0,U,40968,999,11627,.25973809E-3,.3177E-4,0
ELEKTRO-L 2,2015-074A,2026-06-14T23:18:10.798848,1.00270489,.0000874,6.6873,70.5494,244.3322,283.4193,0,U,41105,999,3848,0,-.118E-5,0
DAMPE,2015-078A,2026-06-15T01:50:20.737824,15.30780475,.0013828,97.4552,171.5330,83.8102,276.4713,0,U,41173,999,58422,.41967E-4,.1173E-4,0
ORBCOMM FM110,2015-081D,2026-06-14T23:32:25.723392,14.58877578,.0002568,47.0033,11.8752,62.5466,297.5681,0,U,41182,999,55730,.16368E-3,.603E-5,0
ORBCOMM FM112,2015-081F,2026-06-15T00:28:22.512864,14.58901548,.0003606,46.9994,280.4970,208.7435,151.3253,0,U,41184,999,55863,.14972E-3,.537E-5,0
ORBCOMM FM113,2015-081G,2026-06-14T14:02:53.344032,14.58856169,.0002139,47.0013,282.9257,214.6325,145.4422,0,U,41185,999,55855,.10887E-3,.343E-5,0
ORBCOMM FM108,2015-081J,2026-06-14T13:08:46.171104,14.58867428,.0002809,47.0035,194.6770,212.6751,147.3961,0,U,41187,999,55969,.10032E-3,.303E-5,0
ORBCOMM FM117,2015-081K,2026-06-14T18:53:34.721088,14.58863849,.00033664,46.9995,192.1789,215.0215,145.0450,0,U,41188,999,55977,.95336804E-4,.279E-5,0
ORBCOMM FM116,2015-081L,2026-06-15T00:59:56.793120,14.58880501,.0000652,47.0026,280.7669,46.7508,313.3432,0,U,41189,999,55862,.15455E-3,.56E-5,0
HORYU-4,2016-012D,2026-06-14T11:54:51.309216,15.93820636,.00047162,30.9847,98.7619,253.7574,106.2569,0,U,41340,999,57038,.10359447E-2,.399139E-2,.5627425E-4
ZIYUAN 3-02 (ZY 3-02),2016-033A,2026-06-15T03:37:17.018688,15.21465216,.001123,97.3840,241.9645,297.8927,62.1171,0,U,41556,999,55767,.23157E-3,.5144E-4,0
CARTOSAT-2C,2016-040A,2026-06-15T03:36:34.846848,15.19305911,.0010451,97.4491,226.1561,137.4868,222.7177,0,U,41599,999,55340,.21935E-3,.4568E-4,0
LAPAN-A3,2016-040E,2026-06-15T05:35:36.846240,15.33093140,.0011128,97.1485,162.4429,32.3369,327.8554,0,U,41603,999,55451,.96388E-4,.3011E-4,0
GAOFEN-3,2016-049A,2026-06-15T05:03:30.494304,14.42215291,.0001348,98.4006,174.0264,99.8569,260.2773,0,U,41727,999,51836,.13132E-4,0,0
CAS-2T & KS-1Q,2016-066G,2026-06-15T03:54:24.978240,14.44688208,.0342731,98.3821,241.9222,135.6008,227.3214,0,U,41847,999,50450,.22513E-3,.1557E-4,0
YUNHAI-1 01,2016-068A,2026-06-15T03:23:08.829888,14.32704427,.0006243,98.5826,177.1669,48.3351,311.8366,0,U,41857,999,50153,.11462E-3,.268E-5,0
RESOURCESAT-2A,2016-074A,2026-06-15T04:05:29.448672,14.21616346,.0003334,98.7533,239.6909,88.0101,272.1458,0,U,41877,999,49401,.10722E-3,.191E-5,0
TANSAT,2016-081A,2026-06-15T04:37:05.185632,14.59950146,.0019694,98.5356,166.3908,318.7553,41.2158,0,U,41898,999,50433,.96997E-4,.415E-5,0
JILIN-1 03,2017-002B,2026-06-15T01:53:00.858624,15.41533226,.0006541,97.1939,173.1926,160.9158,199.2335,0,U,41914,999,52153,.28711E-3,.11979E-3,0
CARTOSAT-2D,2017-008A,2026-06-15T04:22:51.824928,15.19321882,.0003792,97.4112,225.5257,238.3709,121.7156,0,U,41948,999,51727,.22676E-3,.4722E-4,0
